EYESAT A (AO-27)        
1 22825U 93061C   26136.81371423  .00000059  00000+0  39415-4 0  9994
2 22825  98.6890 204.2362 0008284 184.6679 175.4427 14.30933054702510
ITAMSAT (IO-26)         
1 22826U 93061D   26136.94227765  .00000063  00000+0  40462-4 0  9997
2 22826  98.6839 204.2791 0009145 168.2594 191.8804 14.31359058702845
RADIO ROSTO (RS15)      
1 23439U 94085A   26136.89742475 -.00000052  00000+0 -28057-3 0  9994
2 23439  64.8189 353.8223 0155072   9.6130 350.7704 11.27583604292370
JAS-2 (FO-29)           
1 24278U 96046B   26136.81433126  .00000011  00000+0  46486-4 0  9997
2 24278  98.5272 349.9786 0349911 177.6934 182.5921 13.53272582468923
FORTE                   
1 24920U 97047A   26136.85271670  .00000107  00000+0  66178-4 0  9997
2 24920  69.9527  84.7954 0023830 315.6548  44.2665 14.27931207494215
TECHSAT 1B (GO-32)      
1 25397U 98043D   26136.73594227  .00000013  00000+0  25995-4 0  9994
2 25397  99.0065 128.7032 0000801   4.6491 355.4695 14.24421797446858
ISS (ZARYA)             
1 25544U 98067A   26136.58530756  .00005157  00000+0  10087-3 0  9993
2 25544  51.6318  96.5382 0007530  65.5821 294.5953 15.49234512566854
IMAGE                   
1 26113U 00017A   26131.51486742  .00000008  00000+0 -20584-1 0  9999
2 26113  94.2002 314.8870 7459903 291.9767   8.1989  1.68665748160880
CLUSTER II-FM7 (SAMBA)  
1 26410U 00041A   26136.90193215  .00003611  00000+0  00000+0 0  9995
2 26410 149.8252  45.4159 9017491 262.1600   0.5378  0.44878750 20167
CLUSTER II-FM8 (TANGO)  
1 26464U 00045B   26136.89704581  .00003719  00000+0  00000+0 0  9999
2 26464 150.0886  46.4719 9022759 263.0807   0.4723  0.44400393 20154
ODIN                    
1 26702U 01007A   26136.94450696  .00098840  00000+0  93021-3 0  9992
2 26702  97.3908 176.0987 0003086 185.9446 174.1778 15.66789909384490
OMNI-M1                 
1 26857U 01026A   26136.37865379 -.00000011  00000+0  00000+0 0  9994
2 26857  44.8421 252.5957 0015297  48.1988 311.9568  3.92401279204321
PCSAT (NO-44)           
1 26931U 01043C   26136.93828739  .00000066  00000+0  55711-4 0  9990
2 26931  67.0509 325.0958 0006239 263.6964  96.3427 14.31943070285972
PROBA-1                 
1 26958U 01049B   26137.00448279  .00000899  00000+0  62223-4 0  9991
2 26958  97.9609 144.4505 0053671 227.1964 132.4745 15.07369730338920
SAUDISAT 1C (SO-50)     
1 27607U 02058C   26136.66362445  .00000613  00000+0  90219-4 0  9995
2 27607  64.5521 226.5121 0075628 268.2379  91.0064 14.82976040259783
CORIOLIS                
1 27640U 03001A   26136.98108970  .00000066  00000+0  51825-4 0  9999
2 27640  98.7135 144.3419 0012988 305.8473  54.1496 14.19935774209794
CUTE-1 (CO-55)          
1 27844U 03031E   26136.98733409  .00000179  00000+0  96322-4 0  9995
2 27844  98.6746 145.9384 0008291 277.1564  82.8672 14.24315051187233
CUBESAT XI-IV (CO-57)   
1 27848U 03031J   26136.96017615  .00000150  00000+0  85081-4 0  9990
2 27848  98.6778 145.6494 0008322 298.5397  61.4943 14.23602877186931
MOZHAETS 4 (RS22)       
1 27939U 03042A   26136.99120431  .00001024  00000+0  16607-3 0  9995
2 27939  98.3463 320.4709 0011639  14.3305 138.5299 14.73409885210959
