OBJECT_NAME,OBJECT_ID,EPOCH,MEAN_MOTION,ECCENTRICITY,INCLINATION,RA_OF_ASC_NODE,ARG_OF_PERICENTER,MEAN_ANOMALY,EPHEMERIS_TYPE,CLASSIFICATION_TYPE,NORAD_CAT_ID,ELEMENT_SET_NO,REV_AT_EPOCH,BSTAR,MEAN_MOTION_DOT,MEAN_MOTION_DDOT
EYESAT A (AO-27),1993-061C,2026-05-16T19:31:44.909472,14.30933054,.00082848,98.6890,204.2362,184.6679,175.4427,0,U,22825,999,70251,.39415359E-4,.59E-6,0
ITAMSAT (IO-26),1993-061D,2026-05-16T22:36:52.788960,14.31359058,.00091451,98.6839,204.2791,168.2594,191.8804,0,U,22826,999,70284,.40461649E-4,.63E-6,0
RADIO ROSTO (RS15),1994-085A,2026-05-16T21:32:17.498400,11.27583604,.01550723,64.8189,353.8223,9.6130,350.7704,0,U,23439,999,29237,-.28057464E-3,-.52E-6,0
JAS-2 (FO-29),1996-046B,2026-05-16T19:32:38.220864,13.53272582,.03499118,98.5272,349.9786,177.6934,182.5921,0,U,24278,999,46892,.46486246E-4,.11E-6,0
FORTE,1997-047A,2026-05-16T20:27:54.722880,14.27931207,.00238306,69.9527,84.7954,315.6548,44.2665,0,U,24920,999,49421,.66177857E-4,.107E-5,0
TECHSAT 1B (GO-32),1998-043D,2026-05-16T17:39:45.412128,14.24421797,.00008015,99.0065,128.7032,4.6491,355.4695,0,U,25397,999,44685,.25995212E-4,.13E-6,0
ISS (ZARYA),1998-067A,2026-05-16T14:02:50.573184,15.49234512,.00075301,51.6318,96.5382,65.5821,294.5953,0,U,25544,999,56685,.10087434E-3,.5157E-4,0
IMAGE,2000-017A,2026-05-11T12:21:24.545088,1.68665748,.74599038,94.2002,314.8870,291.9767,8.1989,0,U,26113,999,16088,-.20584314E-1,.8E-7,0
CLUSTER II-FM7 (SAMBA),2000-041A,2026-05-16T21:38:46.937760,0.44878750,.90174919,149.8252,45.4159,262.1600,0.5378,0,U,26410,999,2016,0,.3611E-4,0
CLUSTER II-FM8 (TANGO),2000-045B,2026-05-16T21:31:44.757984,0.44400393,.90227595,150.0886,46.4719,263.0807,0.4723,0,U,26464,999,2015,0,.3719E-4,0
ODIN,2001-007A,2026-05-16T22:40:05.401344,15.66789909,.00030861,97.3908,176.0987,185.9446,174.1778,0,U,26702,999,38449,.93021297E-3,.9884E-3,0
OMNI-M1,2001-026A,2026-05-16T09:05:15.687456,3.92401279,.00152975,44.8421,252.5957,48.1988,311.9568,0,U,26857,999,20432,0,-.11E-6,0
PCSAT (NO-44),2001-043C,2026-05-16T22:31:08.030496,14.31943070,.00062392,67.0509,325.0958,263.6964,96.3427,0,U,26931,999,28597,.55710505E-4,.66E-6,0
PROBA-1,2001-049B,2026-05-17T00:06:27.313056,15.07369730,.00536718,97.9609,144.4505,227.1964,132.4745,0,U,26958,999,33892,.62222789E-4,.899E-5,0
SAUDISAT 1C (SO-50),2002-058C,2026-05-16T15:55:37.152480,14.82976040,.00756289,64.5521,226.5121,268.2379,91.0064,0,U,27607,999,25978,.90218557E-4,.613E-5,0
CORIOLIS,2003-001A,2026-05-16T23:32:46.150080,14.19935774,.00129883,98.7135,144.3419,305.8473,54.1496,0,U,27640,999,20979,.51824921E-4,.66E-6,0
CUTE-1 (CO-55),2003-031E,2026-05-16T23:41:45.665376,14.24315051,.0008291,98.6746,145.9384,277.1564,82.8672,0,U,27844,999,18723,.96322132E-4,.179E-5,0
CUBESAT XI-IV (CO-57),2003-031J,2026-05-16T23:02:39.219360,14.23602877,.00083227,98.6778,145.6494,298.5397,61.4943,0,U,27848,999,18693,.85081382E-4,.15E-5,0
MOZHAETS 4 (RS22),2003-042A,2026-05-16T23:47:20.052384,14.73409885,.00116394,98.3463,320.4709,14.3305,138.5299,0,U,27939,999,21095,.1660671E-3,.1024E-4,0
